start=new Date('2022-08-16T00:00:00.000Z').valueOf();
sats=[{"OBJECT_NAME":"STARLINK-1929","ECCENTRICITY":"0.00014490","PERIAPSIS":"546.223","EPOCH":"2022-08-15T19:08:28.967136","MEAN_MOTION":"15.06395782","MEAN_MOTION_DOT":"0.00002265","COUNTRY_CODE":"US","APOAPSIS":"548.230","TLE_LINE2":"2 46788  53.0541  16.0431 0001449  69.8825 290.2319 15.06395782100872","INCLINATION":"53.0541","NORAD_CAT_ID":"46788","RCS_SIZE":"LARGE","FILE":"3537378","REF_FRAME":"TEME","TIME_SYSTEM":"UTC","ELEMENT_SET_NO":"999","PERIOD":"95.592","ARG_OF_PERICENTER":"69.8825","RA_OF_ASC_NODE":"16.0431","GP_ID":"210297554","MEAN_ELEMENT_THEORY":"SGP4","OBJECT_ID":"2020-074BB","CLASSIFICATION_TYPE":"U","SEMIMAJOR_AXIS":"6925.361","OBJECT_TYPE":"PAYLOAD","BSTAR":"0.00017091000000","CENTER_NAME":"EARTH","LAUNCH_DATE":"2020-10-24","SITE":"AFETR","DECAY_DATE":null,"MEAN_MOTION_DDOT":"0.0000000000000","MEAN_ANOMALY":"290.2319","REV_AT_EPOCH":"10087","EPHEMERIS_TYPE":"0","TLE_LINE1":"1 46788U 20074BB  22227.79755749  .00002265  00000-0  17091-3 0  9990"},{"MEAN_ANOMALY":"294.0694","MEAN_MOTION_DDOT":"0.0000000000000","DECAY_DATE":null,"SITE":"AFETR","LAUNCH_DATE":"2020-10-24","CENTER_NAME":"EARTH","TLE_LINE1":"1 46789U 20074BC  22227.75426439 -.00001187  00000-0 -60760-4 0  9994","EPHEMERIS_TYPE":"0","REV_AT_EPOCH":"10044","RA_OF_ASC_NODE":"46.3996","ARG_OF_PERICENTER":"66.0460","PERIOD":"95.592","ELEMENT_SET_NO":"999","TIME_SYSTEM":"UTC","OBJECT_TYPE":"PAYLOAD","SEMIMAJOR_AXIS":"6925.329","BSTAR":"-0.00006076000000","CLASSIFICATION_TYPE":"U","OBJECT_ID":"2020-074BC","MEAN_ELEMENT_THEORY":"SGP4","GP_ID":"210298805","RCS_SIZE":"LARGE","NORAD_CAT_ID":"46789","INCLINATION":"53.0560","REF_FRAME":"TEME","FILE":"3537378","EPOCH":"2022-08-15T18:06:08.443296","MEAN_MOTION":"15.06406344","PERIAPSIS":"546.103","ECCENTRICITY":"0.00015760","OBJECT_NAME":"STARLINK-1930","TLE_LINE2":"2 46789  53.0560  46.3996 0001576  66.0460 294.0694 15.06406344100449","APOAPSIS":"548.286","COUNTRY_CODE":"US","MEAN_MOTION_DOT":"-0.00001187"},{"NORAD_CAT_ID":"46790","RCS_SIZE":"LARGE","INCLINATION":"53.0549","FILE":"3537378","REF_FRAME":"TEME","PERIAPSIS":"546.357","OBJECT_NAME":"STARLINK-1931","ECCENTRICITY":"0.00012640","EPOCH":"2022-08-15T15:37:29.886240","MEAN_MOTION":"15.06393770","MEAN_MOTION_DOT":"0.00000061","COUNTRY_CODE":"US","APOAPSIS":"548.108","TLE_LINE2":"2 46790  53.0549  46.7131 0001264  98.5274 261.5858 15.06393770100427","DECAY_DATE":null,"MEAN_MOTION_DDOT":"0.0000000000000","LAUNCH_DATE":"2020-10-24","CENTER_NAME":"EARTH","SITE":"AFETR","MEAN_ANOMALY":"261.5858","EPHEMERIS_TYPE":"0","REV_AT_EPOCH":"10042","TLE_LINE1":"1 46790U 20074BD  22227.65104035  .00000061  00000-0  22977-4 0  9996","ELEMENT_SET_NO":"999","TIME_SYSTEM":"UTC","RA_OF_ASC_NODE":"46.7131","PERIOD":"95.593","ARG_OF_PERICENTER":"98.5274","CLASSIFICATION_TYPE":"U","MEAN_ELEMENT_THEORY":"SGP4","GP_ID":"210298548","OBJECT_ID":"2020-074BD","OBJECT_TYPE":"PAYLOAD","BSTAR":"0.00002297700000","SEMIMAJOR_AXIS":"6925.368"},{"MEAN_MOTION_DOT":"-0.00001397","COUNTRY_CODE":"US","APOAPSIS":"548.214","TLE_LINE2":"2 46791  53.0565  46.0387 0001426  87.3537 272.7615 15.06395841100459","OBJECT_NAME":"STARLINK-1933","ECCENTRICITY":"0.00014260","PERIAPSIS":"546.239","EPOCH":"2022-08-15T19:09:48.697056","MEAN_MOTION":"15.06395841","FILE":"3537378","REF_FRAME":"TEME","INCLINATION":"53.0565","NORAD_CAT_ID":"46791","RCS_SIZE":"LARGE","GP_ID":"210297804","MEAN_ELEMENT_THEORY":"SGP4","OBJECT_ID":"2020-074BE","CLASSIFICATION_TYPE":"U","OBJECT_TYPE":"PAYLOAD","BSTAR":"-0.00007488800000","SEMIMAJOR_AXIS":"6925.361","TIME_SYSTEM":"UTC","ELEMENT_SET_NO":"999","PERIOD":"95.592","ARG_OF_PERICENTER":"87.3537","RA_OF_ASC_NODE":"46.0387","REV_AT_EPOCH":"10045","EPHEMERIS_TYPE":"0","TLE_LINE1":"1 46791U 20074BE  22227.79848029 -.00001397  00000-0 -74888-4 0  9993","CENTER_NAME":"EARTH","LAUNCH_DATE":"2020-10-24","SITE":"AFETR","DECAY_DATE":null,"MEAN_MOTION_DDOT":"0.0000000000000","MEAN_ANOMALY":"272.7615"},{"COUNTRY_CODE":"US","MEAN_MOTION_DOT":"0.00001181","TLE_LINE2":"2 46792  53.0574  36.8023 0001296  78.6039 281.5096 15.06406419100566","APOAPSIS":"548.091","PERIAPSIS":"546.296","ECCENTRICITY":"0.00012960","OBJECT_NAME":"STARLINK-1934","MEAN_MOTION":"15.06406419","EPOCH":"2022-08-15T15:01:39.492192","FILE":"3537378","REF_FRAME":"TEME","RCS_SIZE":"LARGE","NORAD_CAT_ID":"46792","INCLINATION":"53.0574","CLASSIFICATION_TYPE":"U","OBJECT_ID":"2020-074BF","MEAN_ELEMENT_THEORY":"SGP4","GP_ID":"210298054","OBJECT_TYPE":"PAYLOAD","SEMIMAJOR_AXIS":"6925.329","BSTAR":"0.00009817200000","ELEMENT_SET_NO":"999","TIME_SYSTEM":"UTC","RA_OF_ASC_NODE":"36.8023","ARG_OF_PERICENTER":"78.6039","PERIOD":"95.592","EPHEMERIS_TYPE":"0","REV_AT_EPOCH":"10056","TLE_LINE1":"1 46792U 20074BF  22227.62615153  .00001181  00000-0  98172-4 0  9997","MEAN_MOTION_DDOT":"0.0000000000000","DECAY_DATE":null,"SITE":"AFETR","CENTER_NAME":"EARTH","LAUNCH_DATE":"2020-10-24","MEAN_ANOMALY":"281.5096"},{"MEAN_ELEMENT_THEORY":"SGP4","GP_ID":"210298306","OBJECT_ID":"2020-074BG","CLASSIFICATION_TYPE":"U","OBJECT_TYPE":"PAYLOAD","SEMIMAJOR_AXIS":"6925.371","BSTAR":"0.00003027000000","TIME_SYSTEM":"UTC","ELEMENT_SET_NO":"999","PERIOD":"95.593","ARG_OF_PERICENTER":"84.9748","RA_OF_ASC_NODE":"46.6881","REV_AT_EPOCH":"10042","EPHEMERIS_TYPE":"0","TLE_LINE1":"1 46793U 20074BG  22227.65472711  .00000169  00000-0  30270-4 0  9992","LAUNCH_DATE":"2020-10-24","CENTER_NAME":"EARTH","SITE":"AFETR","DECAY_DATE":null,"MEAN_MOTION_DDOT":"0.0000000000000","MEAN_ANOMALY":"275.1406","MEAN_MOTION_DOT":"0.00000169","COUNTRY_CODE":"US","APOAPSIS":"548.235","TLE_LINE2":"2 46793  53.0558  46.6881 0001443  84.9748 275.1406 15.06392824100424","OBJECT_NAME":"STARLINK-1941","ECCENTRICITY":"0.00014430","PERIAPSIS":"546.236","MEAN_MOTION":"15.06392824","EPOCH":"2022-08-15T15:42:48.422304","FILE":"3537378","REF_FRAME":"TEME","INCLINATION":"53.0558","NORAD_CAT_ID":"46793","RCS_SIZE":"LARGE"},{"TLE_LINE2":"2 46794  53.0561  45.7661 0001388  79.6998 280.4147 15.06394890100461","APOAPSIS":"548.190","COUNTRY_CODE":"US","MEAN_MOTION_DOT":"-0.00000349","MEAN_MOTION":"15.06394890","EPOCH":"2022-08-15T20:40:02.568576","PERIAPSIS":"546.268","ECCENTRICITY":"0.00013880","OBJECT_NAME":"STARLINK-1942","REF_FRAME":"TEME","FILE":"3537378","RCS_SIZE":"LARGE","NORAD_CAT_ID":"46794","INCLINATION":"53.0561","OBJECT_TYPE":"PAYLOAD","SEMIMAJOR_AXIS":"6925.364","BSTAR":"-0.00000455860000","CLASSIFICATION_TYPE":"U","OBJECT_ID":"2020-074BH","MEAN_ELEMENT_THEORY":"SGP4","GP_ID":"210299048","RA_OF_ASC_NODE":"45.7661","ARG_OF_PERICENTER":"79.6998","PERIOD":"95.592","ELEMENT_SET_NO":"999","TIME_SYSTEM":"UTC","TLE_LINE1":"1 46794U 20074BH  22227.86114084 -.00000349  00000-0 -45586-5 0  9991","EPHEMERIS_TYPE":"0","REV_AT_EPOCH":"10046","MEAN_ANOMALY":"280.4147","MEAN_MOTION_DDOT":"0.0000000000000","DECAY_DATE":null,"SITE":"AFETR","CENTER_NAME":"EARTH","LAUNCH_DATE":"2020-10-24"},{"REF_FRAME":"TEME","FILE":"3537378","RCS_SIZE":"LARGE","NORAD_CAT_ID":"46796","INCLINATION":"53.0545","TLE_LINE2":"2 46796  53.0545  36.1743 0001509  76.5609 283.5548 15.06396993100588","APOAPSIS":"548.268","COUNTRY_CODE":"US","MEAN_MOTION_DOT":"0.00000323","MEAN_MOTION":"15.06396993","EPOCH":"2022-08-15T18:28:40.417536","PERIAPSIS":"546.178","ECCENTRICITY":"0.00015090","OBJECT_NAME":"STARLINK-1944","TLE_LINE1":"1 46796U 20074BK  22227.76991224  .00000323  00000-0  40561-4 0  9998","EPHEMERIS_TYPE":"0","REV_AT_EPOCH":"10058","MEAN_ANOMALY":"283.5548","MEAN_MOTION_DDOT":"0.0000000000000","DECAY_DATE":null,"SITE":"AFETR","LAUNCH_DATE":"2020-10-24","CENTER_NAME":"EARTH","OBJECT_TYPE":"PAYLOAD","SEMIMAJOR_AXIS":"6925.358","BSTAR":"0.00004056100000","CLASSIFICATION_TYPE":"U","OBJECT_ID":"2020-074BK","GP_ID":"210297305","MEAN_ELEMENT_THEORY":"SGP4","RA_OF_ASC_NODE":"36.1743","ARG_OF_PERICENTER":"76.5609","PERIOD":"95.592","ELEMENT_SET_NO":"999","TIME_SYSTEM":"UTC"},{"FILE":"3537378","REF_FRAME":"TEME","INCLINATION":"53.0562","RCS_SIZE":"LARGE","NORAD_CAT_ID":"46798","COUNTRY_CODE":"US","MEAN_MOTION_DOT":"0.00001284","TLE_LINE2":"2 46798  53.0562  61.0370 0001119  79.9237 280.1878 15.06395866100243","APOAPSIS":"548.001","ECCENTRICITY":"0.00011190","OBJECT_NAME":"STARLINK-1948","PERIAPSIS":"546.451","MEAN_MOTION":"15.06395866","EPOCH":"2022-08-15T19:14:25.149408","REV_AT_EPOCH":"10024","EPHEMERIS_TYPE":"0","TLE_LINE1":"1 46798U 20074BM  22227.80167997  .00001284  00000-0  10511-3 0  9995","SITE":"AFETR","LAUNCH_DATE":"2020-10-24","CENTER_NAME":"EARTH","MEAN_MOTION_DDOT":"0.0000000000000","DECAY_DATE":null,"MEAN_ANOMALY":"280.1878","OBJECT_ID":"2020-074BM","GP_ID":"210297555","MEAN_ELEMENT_THEORY":"SGP4","CLASSIFICATION_TYPE":"U","SEMIMAJOR_AXIS":"6925.361","OBJECT_TYPE":"PAYLOAD","BSTAR":"0.00010511000000","TIME_SYSTEM":"UTC","ELEMENT_SET_NO":"999","ARG_OF_PERICENTER":"79.9237","PERIOD":"95.592","RA_OF_ASC_NODE":"61.0370"},{"RA_OF_ASC_NODE":"25.9164","PERIOD":"95.592","ARG_OF_PERICENTER":"101.7451","ELEMENT_SET_NO":"999","TIME_SYSTEM":"UTC","SEMIMAJOR_AXIS":"6925.353","OBJECT_TYPE":"PAYLOAD","BSTAR":"0.00013735000000","CLASSIFICATION_TYPE":"U","MEAN_ELEMENT_THEORY":"SGP4","GP_ID":"210297841","OBJECT_ID":"2020-088A","MEAN_ANOMALY":"258.3698","DECAY_DATE":null,"MEAN_MOTION_DDOT":"0.0000000000000","LAUNCH_DATE":"2020-11-25","CENTER_NAME":"EARTH","SITE":"AFETR","TLE_LINE1":"1 47122U 20088A   22227.82243069  .00001765  00000-0  13735-3 0  9994","EPHEMERIS_TYPE":"0","REV_AT_EPOCH":"9561","EPOCH":"2022-08-15T19:44:18.011616","MEAN_MOTION":"15.06398479","PERIAPSIS":"546.226","OBJECT_NAME":"STARLINK-1777","ECCENTRICITY":"0.00014330","APOAPSIS":"548.211","TLE_LINE2":"2 47122  53.0559  25.9164 0001433 101.7451 258.3698 15.06398479 95616","MEAN_MOTION_DOT":"0.00001765","COUNTRY_CODE":"US","NORAD_CAT_ID":"47122","RCS_SIZE":"LARGE","INCLINATION":"53.0559","REF_FRAME":"TEME","FILE":"3537378"}];
